<?xml version='1.0' encoding='UTF-8'?>
<kml xmlns="http://www.opengis.net/kml/2.2">
  <Document>
    <name>Italy Trip — Day 10 POIs</name>
    <description>Day 10 numbered points from the Italy Road Trip Companion.</description>
    <Placemark>
      <name>01 — Residenza Sveva Albergo Diffuso, Termoli</name>
      <description>Start
Piazza Duomo 11, 86039 Termoli CB, Italy</description>
      <Point>
        <coordinates>14.9975873,42.0054205,0</coordinates>
      </Point>
    </Placemark>
    <Placemark>
      <name>02 — Lago di Lesina</name>
      <description>Optional lagoon stop
Lesina FG, Italy</description>
      <Point>
        <coordinates>15.3532657,41.8619097,0</coordinates>
      </Point>
    </Placemark>
    <Placemark>
      <name>03 — Vieste centro storico &amp; Castello Svevo</name>
      <description>Historic site
Viale Federico Secondo di Svevia, 71019 Vieste FG, Italy</description>
      <Point>
        <coordinates>16.1792922,41.8809236,0</coordinates>
      </Point>
    </Placemark>
    <Placemark>
      <name>04 — Spiaggia di Castello &amp; Pizzomunno</name>
      <description>Beach / viewpoint
Spiaggia di Castello, 71019 Vieste FG, Italy</description>
      <Point>
        <coordinates>16.1753703,41.8673500,0</coordinates>
      </Point>
    </Placemark>
    <Placemark>
      <name>05 — Chianca Amara</name>
      <description>Historic memorial
Via Gregorio XIII, 71019 Vieste FG, Italy</description>
      <Point>
        <coordinates>16.1814304,41.8815296,0</coordinates>
      </Point>
    </Placemark>
    <Placemark>
      <name>06 — Trabucco di San Lorenzo</name>
      <description>Optional trabocco heritage
Strada Provinciale 52 Vieste-Peschici, Defensola, 71019 Vieste FG, Italy</description>
      <Point>
        <coordinates>16.1610791,41.8954927,0</coordinates>
      </Point>
    </Placemark>
    <Placemark>
      <name>07 — Cornetteria Chianca Amara</name>
      <description>Food stop
Via Nicolo Cimaglia 4, 71019 Vieste FG, Italy</description>
      <Point>
        <coordinates>16.1815773,41.8814613,0</coordinates>
      </Point>
    </Placemark>
    <Placemark>
      <name>08 — Bakery Cafe Sant'Antonio</name>
      <description>Food stop
Piazzale Aldo Moro 64, 71019 Vieste FG, Italy</description>
      <Point>
        <coordinates>16.1696023,41.8842286,0</coordinates>
      </Point>
    </Placemark>
    <Placemark>
      <name>09 — Donlù</name>
      <description>Dinner
Largo Seggio 8, 71019 Vieste FG, Italy</description>
      <Point>
        <coordinates>16.1792922,41.8809236,0</coordinates>
      </Point>
    </Placemark>
    <Placemark>
      <name>10 — Osteria degli Archi</name>
      <description>Dinner / alternate
Via Ripe 2, 71019 Vieste FG, Italy</description>
      <Point>
        <coordinates>16.1829919,41.8825156,0</coordinates>
      </Point>
    </Placemark>
    <Placemark>
      <name>11 — Box 19</name>
      <description>Dinner / budget
Via Santa Maria di Merino 13, 71019 Vieste FG, Italy</description>
      <Point>
        <coordinates>16.1765535,41.8837530,0</coordinates>
      </Point>
    </Placemark>
    <Placemark>
      <name>12 — Ristorante Al Dragone</name>
      <description>Dinner / alternate
Via Duomo 8, 71019 Vieste FG, Italy</description>
      <Point>
        <coordinates>16.1792922,41.8809236,0</coordinates>
      </Point>
    </Placemark>
    <Placemark>
      <name>13 — B&amp;B Dimora del Dragone</name>
      <description>Accommodation / end / my pick
Via Duomo 8, 71019 Vieste FG, Italy</description>
      <Point>
        <coordinates>16.1792922,41.8809236,0</coordinates>
      </Point>
    </Placemark>
    <Placemark>
      <name>14 — Viesthouse B&amp;B</name>
      <description>Accommodation / alternate
Via Dottor Giuliani 27, 71019 Vieste FG, Italy</description>
      <Point>
        <coordinates>16.1779067,41.8832338,0</coordinates>
      </Point>
    </Placemark>
    <Placemark>
      <name>15 — Foresta Umbra</name>
      <description>Optional inland detour
71018 Vico del Gargano FG, Italy</description>
      <Point>
        <coordinates>15.9775987,41.8447785,0</coordinates>
      </Point>
    </Placemark>
  </Document>
</kml>