<?xml version='1.0' encoding='UTF-8'?>
<kml xmlns="http://www.opengis.net/kml/2.2">
  <Document>
    <name>Italy Trip — Day 13 POIs</name>
    <description>Day 13 numbered points from the Italy Road Trip Companion.</description>
    <Placemark>
      <name>01 — Molfetta (Day 9 alternative)</name>
      <description>Start alternative
Vico Campanile, 70056 Molfetta BA, Italy</description>
      <Point>
        <coordinates>16.5979521,41.2063077,0</coordinates>
      </Point>
    </Placemark>
    <Placemark>
      <name>02 — Bari (Day 9 preferred)</name>
      <description>Start (preferred)
Arco Basso, 70122 Bari BA, Italy</description>
      <Point>
        <coordinates>16.8671134,41.1273126,0</coordinates>
      </Point>
    </Placemark>
    <Placemark>
      <name>03 — Polignano a Mare — Lama Monachile</name>
      <description>Beach / cove
Via S. Vito, 70044 Polignano a Mare BA, Italy</description>
      <Point>
        <coordinates>17.2181307,40.9963887,0</coordinates>
      </Point>
    </Placemark>
    <Placemark>
      <name>04 — Dorsale</name>
      <description>Food stop / hidden gem
Via Martiri di Dogali, Centro storico, 70044 Polignano a Mare BA, Italy</description>
      <Point>
        <coordinates>17.2178068,40.992981,0</coordinates>
      </Point>
    </Placemark>
    <Placemark>
      <name>05 — Monopoli — Centro Storico</name>
      <description>Historic site
Largo Cattedrale, 70043 Monopoli BA, Italy</description>
      <Point>
        <coordinates>17.3033327,40.9508368,0</coordinates>
      </Point>
    </Placemark>
    <Placemark>
      <name>06 — Rifugi Antiaerei di Monopoli</name>
      <description>Optional historic site
Piazza Vittorio Emanuele II, 70043 Monopoli BA, Italy</description>
      <Point>
        <coordinates>17.3000255,40.9522073,0</coordinates>
      </Point>
    </Placemark>
    <Placemark>
      <name>07 — Madià (Porto Antico)</name>
      <description>Lunch
Porto Antico, 70043 Monopoli BA, Italy</description>
      <Point>
        <coordinates>17.3041064,40.9530079,0</coordinates>
      </Point>
    </Placemark>
    <Placemark>
      <name>08 — Locanda dei Mercanti</name>
      <description>Lunch / alternate
Via Giuseppe Garibaldi 44, 70043 Monopoli BA, Italy</description>
      <Point>
        <coordinates>17.30243,40.95277,0</coordinates>
      </Point>
    </Placemark>
    <Placemark>
      <name>09 — Ostuni — Centro Storico</name>
      <description>Historic site
Centro Storico, 72017 Ostuni BR, Italy</description>
      <Point>
        <coordinates>17.5778841,40.7333725,0</coordinates>
      </Point>
    </Placemark>
    <Placemark>
      <name>10 — Forno 31</name>
      <description>Food stop
Vico Giuseppe Ferrari 6, 72017 Ostuni BR, Italy</description>
      <Point>
        <coordinates>17.5759763,40.7292479,0</coordinates>
      </Point>
    </Placemark>
    <Placemark>
      <name>11 — Riccardo Caffè</name>
      <description>Hidden gem / aperitivo
Via Gaetano Tanzarella Vitale 61, 72017 Ostuni BR, Italy</description>
      <Point>
        <coordinates>17.5803666,40.7339749,0</coordinates>
      </Point>
    </Placemark>
    <Placemark>
      <name>12 — San Vito dei Normanni (arrival)</name>
      <description>Accommodation / end
Via Principe di Piemonte 13, 72019 San Vito dei Normanni BR, Italy</description>
      <Point>
        <coordinates>17.7087266,40.6563995,0</coordinates>
      </Point>
    </Placemark>
    <Placemark>
      <name>13 — XFood</name>
      <description>Dinner
Via Mare snc, inside ExFadda cultural centre, 72019 San Vito dei Normanni BR, Italy</description>
      <Point>
        <coordinates>17.7126581,40.6589314,0</coordinates>
      </Point>
    </Placemark>
    <Placemark>
      <name>14 — Virgola Pasticceria Terapeutica</name>
      <description>Food stop (next morning)
Via Mesagne 136, 72019 San Vito dei Normanni BR, Italy</description>
      <Point>
        <coordinates>17.711078,40.653188,0</coordinates>
      </Point>
    </Placemark>
  </Document>
</kml>
