<?xml version='1.0' encoding='UTF-8'?>
<kml xmlns="http://www.opengis.net/kml/2.2">
  <Document>
    <name>Italy Trip — Day 15 POIs</name>
    <description>Day 15 numbered points from the Italy Road Trip Companion.</description>
    <Placemark>
      <name>01 — San Vito dei Normanni (start/end)</name>
      <description>Accommodation / start-end
Via Principe di Piemonte 13, 72019 San Vito dei Normanni BR, Italy</description>
      <Point>
        <coordinates>17.7087266,40.6563995,0</coordinates>
      </Point>
    </Placemark>
    <Placemark>
      <name>02 — Masseria Brancati</name>
      <description>Historic site / olive mill
Contrada Brancati s.n.c., 72017 Ostuni BR, Italy</description>
      <Point>
        <coordinates>17.5523,40.7642,0</coordinates>
      </Point>
    </Placemark>
    <Placemark>
      <name>03 — Cisternino — Piazza Vittorio Emanuele II</name>
      <description>Historic site
Piazza Vittorio Emanuele II, 72014 Cisternino BR, Italy</description>
      <Point>
        <coordinates>17.4265,40.7418,0</coordinates>
      </Point>
    </Placemark>
    <Placemark>
      <name>04 — Bar FOD</name>
      <description>Coffee
Piazza Vittorio Emanuele II, 72014 Cisternino BR, Italy</description>
      <Point>
        <coordinates>17.4265,40.7418,0</coordinates>
      </Point>
    </Placemark>
    <Placemark>
      <name>05 — Zio Pietro</name>
      <description>Dinner
Via Duca D'Aosta 3, 72014 Cisternino BR, Italy</description>
      <Point>
        <coordinates>17.4266,40.7416,0</coordinates>
      </Point>
    </Placemark>
    <Placemark>
      <name>06 — Arrosteria del Vicoletto</name>
      <description>Dinner / alternate
Via Giulio II 16, 72014 Cisternino BR, Italy</description>
      <Point>
        <coordinates>17.4265,40.7421,0</coordinates>
      </Point>
    </Placemark>
    <Placemark>
      <name>07 — Premiata Macelleria Santoro</name>
      <description>Dinner / alternate
Via Domenico Cirillo 212, 72014 Cisternino BR, Italy</description>
      <Point>
        <coordinates>17.4270,40.7429,0</coordinates>
      </Point>
    </Placemark>
    <Placemark>
      <name>08 — Ashram Centro Bhole Baba</name>
      <description>Hidden gem / quirky
Contrada Portarino 10, 72014 Cisternino BR, Italy</description>
      <Point>
        <coordinates>17.4029,40.7165,0</coordinates>
      </Point>
    </Placemark>
  </Document>
</kml>